[{"OBJECT_NAME":"STARLINK-3754","OBJECT_ID":"2022-045V","EPOCH":"2026-03-09T15:07:16.053888","MEAN_MOTION":15.08840526,"ECCENTRICITY":0.0001534,"INCLINATION":53.2182,"RA_OF_ASC_NODE":199.3909,"ARG_OF_PERICENTER":85.3436,"MEAN_ANOMALY":274.7731,"EPHEMERIS_TYPE":0,"CLASSIFICATION_TYPE":"U","NORAD_CAT_ID":52350,"ELEMENT_SET_NO":999,"REV_AT_EPOCH":21577,"BSTAR":-2.1957e-6,"MEAN_MOTION_DOT":-3.23e-6,"MEAN_MOTION_DDOT":0},{"OBJECT_NAME":"CZ-6A R\/B","OBJECT_ID":"2026-006B","EPOCH":"2026-03-09T16:33:28.241280","MEAN_MOTION":14.62408141,"ECCENTRICITY":0.02011935,"INCLINATION":142.0446,"RA_OF_ASC_NODE":130.9033,"ARG_OF_PERICENTER":126.5877,"MEAN_ANOMALY":235.3545,"EPHEMERIS_TYPE":0,"CLASSIFICATION_TYPE":"U","NORAD_CAT_ID":67434,"ELEMENT_SET_NO":999,"REV_AT_EPOCH":807,"BSTAR":0.00025316121,"MEAN_MOTION_DOT":2.077e-5,"MEAN_MOTION_DDOT":0}]
